[{"OBJECT_NAME":"STARLINK-30289","OBJECT_ID":"2023-122X","EPOCH":"2026-03-09T22:00:01.999584","MEAN_MOTION":15.154502,"ECCENTRICITY":0.00025448,"INCLINATION":43.0011,"RA_OF_ASC_NODE":79.8606,"ARG_OF_PERICENTER":284.0605,"MEAN_ANOMALY":121.5991,"EPHEMERIS_TYPE":0,"CLASSIFICATION_TYPE":"U","NORAD_CAT_ID":57653,"ELEMENT_SET_NO":999,"REV_AT_EPOCH":547,"BSTAR":0.0047703811,"MEAN_MOTION_DOT":0.0009282,"MEAN_MOTION_DDOT":0},{"OBJECT_NAME":"SPACEMOBILE-006","OBJECT_ID":"2025-309A","EPOCH":"2026-03-09T23:22:27.104448","MEAN_MOTION":15.18016184,"ECCENTRICITY":0.00108499,"INCLINATION":52.9941,"RA_OF_ASC_NODE":65.8805,"ARG_OF_PERICENTER":181.4114,"MEAN_ANOMALY":178.6851,"EPHEMERIS_TYPE":0,"CLASSIFICATION_TYPE":"U","NORAD_CAT_ID":67232,"ELEMENT_SET_NO":999,"REV_AT_EPOCH":1152,"BSTAR":0.00015458852,"MEAN_MOTION_DOT":2.868e-5,"MEAN_MOTION_DDOT":0}]
